start=new Date('2021-11-05T00:00:00.000Z').valueOf();
sats=[{"APOAPSIS":"548.159","MEAN_MOTION":"15.06402927","LAUNCH_DATE":"2021-05-15","SITE":"AFETR","PERIAPSIS":"546.250","EPOCH":"2021-11-04T19:10:06.644928","ARG_OF_PERICENTER":"84.8707","TLE_LINE2":"2 48572  53.0557  60.9508 0001378  84.8707 275.2439 15.06402927 26437","SEMIMAJOR_AXIS":"6925.340","ELEMENT_SET_NO":"999","MEAN_MOTION_DDOT":"0.0000000000000","OBJECT_NAME":"STARLINK-2222","RCS_SIZE":"LARGE","PERIOD":"95.592","INCLINATION":"53.0557","MEAN_ANOMALY":"275.2439","NORAD_CAT_ID":"48572","MEAN_MOTION_DOT":"0.00003255","COUNTRY_CODE":"US","RA_OF_ASC_NODE":"60.9508","BSTAR":"0.00023730000000","CLASSIFICATION_TYPE":"U","TIME_SYSTEM":"UTC","REF_FRAME":"TEME","TLE_LINE1":"1 48572U 21041V   21308.79868802  .00003255  00000-0  23730-3 0  9999","REV_AT_EPOCH":"2643","CENTER_NAME":"EARTH","EPHEMERIS_TYPE":"0","FILE":"3201639","GP_ID":"188915444","OBJECT_TYPE":"PAYLOAD","DECAY_DATE":null,"MEAN_ELEMENT_THEORY":"SGP4","ECCENTRICITY":"0.00013780","OBJECT_ID":"2021-041V"},{"SEMIMAJOR_AXIS":"6925.278","TLE_LINE2":"2 48573  53.0542  51.0531 0001351  77.9138 282.2002 15.06423177 26165","ARG_OF_PERICENTER":"77.9138","EPOCH":"2021-11-04T18:39:35.481600","RCS_SIZE":"LARGE","OBJECT_NAME":"STARLINK-2224","MEAN_MOTION_DDOT":"0.0000000000000","ELEMENT_SET_NO":"999","PERIAPSIS":"546.207","SITE":"AFETR","MEAN_MOTION":"15.06423177","LAUNCH_DATE":"2021-05-15","APOAPSIS":"548.078","COUNTRY_CODE":"US","NORAD_CAT_ID":"48573","MEAN_ANOMALY":"282.2002","MEAN_MOTION_DOT":"0.00008194","INCLINATION":"53.0542","PERIOD":"95.591","REV_AT_EPOCH":"2616","CENTER_NAME":"EARTH","EPHEMERIS_TYPE":"0","TLE_LINE1":"1 48573U 21041W   21308.77749400  .00008194  00000-0  56801-3 0  9992","REF_FRAME":"TEME","TIME_SYSTEM":"UTC","BSTAR":"0.00056801000000","RA_OF_ASC_NODE":"51.0531","CLASSIFICATION_TYPE":"U","ECCENTRICITY":"0.00013510","DECAY_DATE":null,"MEAN_ELEMENT_THEORY":"SGP4","OBJECT_ID":"2021-041W","OBJECT_TYPE":"PAYLOAD","GP_ID":"188956230","FILE":"3202404"},{"OBJECT_ID":"2021-041X","DECAY_DATE":null,"MEAN_ELEMENT_THEORY":"SGP4","ECCENTRICITY":"0.00014620","FILE":"3202404","GP_ID":"188955543","OBJECT_TYPE":"PAYLOAD","TLE_LINE1":"1 48574U 21041X   21308.91667824 -.00015780  00000-0 -10421-2 0  9996","EPHEMERIS_TYPE":"0","CENTER_NAME":"EARTH","REV_AT_EPOCH":"365","CLASSIFICATION_TYPE":"U","RA_OF_ASC_NODE":"20.5139","BSTAR":"-0.00104210000000","TIME_SYSTEM":"UTC","REF_FRAME":"TEME","MEAN_MOTION_DOT":"-0.00015780","MEAN_ANOMALY":"172.8818","NORAD_CAT_ID":"48574","COUNTRY_CODE":"US","PERIOD":"95.591","INCLINATION":"53.0446","SITE":"AFETR","PERIAPSIS":"546.125","MEAN_MOTION_DDOT":"0.0000000000000","OBJECT_NAME":"STARLINK-2225","ELEMENT_SET_NO":"999","RCS_SIZE":"LARGE","ARG_OF_PERICENTER":"72.5681","EPOCH":"2021-11-04T22:00:00.999936","SEMIMAJOR_AXIS":"6925.272","TLE_LINE2":"2 48574  53.0446  20.5139 0001462  72.5681 172.8818 15.06424906  3650","APOAPSIS":"548.150","LAUNCH_DATE":"2021-05-15","MEAN_MOTION":"15.06424906"},{"SITE":"AFETR","PERIAPSIS":"437.391","ELEMENT_SET_NO":"999","MEAN_MOTION_DDOT":"0.0000000000000","OBJECT_NAME":"STARLINK-2227","RCS_SIZE":"LARGE","ARG_OF_PERICENTER":"20.3261","EPOCH":"2021-11-04T22:00:00.999936","SEMIMAJOR_AXIS":"6817.622","TLE_LINE2":"2 48575  53.0544  21.3811 0003074  20.3261 315.4733 15.42245015  3655","APOAPSIS":"441.583","LAUNCH_DATE":"2021-05-15","MEAN_MOTION":"15.42245015","MEAN_MOTION_DOT":"0.00084647","MEAN_ANOMALY":"315.4733","NORAD_CAT_ID":"48575","COUNTRY_CODE":"US","PERIOD":"93.370","INCLINATION":"53.0544","TLE_LINE1":"1 48575U 21041Y   21308.91667824  .00084647  00000-0  19274-2 0  9998","EPHEMERIS_TYPE":"0","CENTER_NAME":"EARTH","REV_AT_EPOCH":"365","CLASSIFICATION_TYPE":"U","RA_OF_ASC_NODE":"21.3811","BSTAR":"0.00192740000000","TIME_SYSTEM":"UTC","REF_FRAME":"TEME","OBJECT_ID":"2021-041Y","DECAY_DATE":null,"MEAN_ELEMENT_THEORY":"SGP4","ECCENTRICITY":"0.00030740","FILE":"3202404","GP_ID":"188955774","OBJECT_TYPE":"PAYLOAD"},{"REF_FRAME":"TEME","TIME_SYSTEM":"UTC","RA_OF_ASC_NODE":"24.9489","BSTAR":"-0.00154720000000","CLASSIFICATION_TYPE":"U","CENTER_NAME":"EARTH","REV_AT_EPOCH":"361","EPHEMERIS_TYPE":"0","TLE_LINE1":"1 48576U 21041Z   21308.91667824 -.00022263  00000-0 -15472-2 0  9993","GP_ID":"188955659","OBJECT_TYPE":"PAYLOAD","FILE":"3202404","DECAY_DATE":null,"MEAN_ELEMENT_THEORY":"SGP4","ECCENTRICITY":"0.00016490","OBJECT_ID":"2021-041Z","MEAN_MOTION":"15.04766534","LAUNCH_DATE":"2021-05-15","APOAPSIS":"553.367","ARG_OF_PERICENTER":"49.4362","EPOCH":"2021-11-04T22:00:00.999936","TLE_LINE2":"2 48576  53.0712  24.9489 0001649  49.4362 251.9456 15.04766534  3617","SEMIMAJOR_AXIS":"6930.359","ELEMENT_SET_NO":"999","MEAN_MOTION_DDOT":"0.0000000000000","OBJECT_NAME":"STARLINK-2228","RCS_SIZE":"LARGE","SITE":"AFETR","PERIAPSIS":"551.082","INCLINATION":"53.0712","PERIOD":"95.696","COUNTRY_CODE":"US","MEAN_ANOMALY":"251.9456","NORAD_CAT_ID":"48576","MEAN_MOTION_DOT":"-0.00022263"},{"ECCENTRICITY":"0.00014420","MEAN_ELEMENT_THEORY":"SGP4","DECAY_DATE":null,"OBJECT_ID":"2021-041AA","FILE":"3202404","OBJECT_TYPE":"PAYLOAD","GP_ID":"188956347","TLE_LINE1":"1 48577U 21041AA  21308.70377928  .00012431  00000-0  85133-3 0  9990","CENTER_NAME":"EARTH","REV_AT_EPOCH":"2615","EPHEMERIS_TYPE":"0","BSTAR":"0.00085133000000","RA_OF_ASC_NODE":"51.3902","CLASSIFICATION_TYPE":"U","REF_FRAME":"TEME","TIME_SYSTEM":"UTC","NORAD_CAT_ID":"48577","MEAN_ANOMALY":"289.4349","MEAN_MOTION_DOT":"0.00012431","COUNTRY_CODE":"US","PERIOD":"95.590","INCLINATION":"53.0546","PERIAPSIS":"546.130","SITE":"AFETR","SEMIMAJOR_AXIS":"6925.263","TLE_LINE2":"2 48577  53.0546  51.3902 0001442  70.6796 289.4349 15.06427758 26150","EPOCH":"2021-11-04T16:53:26.529792","ARG_OF_PERICENTER":"70.6796","RCS_SIZE":"LARGE","OBJECT_NAME":"STARLINK-2231","MEAN_MOTION_DDOT":"0.0000000000000","ELEMENT_SET_NO":"999","APOAPSIS":"548.127","MEAN_MOTION":"15.06427758","LAUNCH_DATE":"2021-05-15"},{"PERIAPSIS":"546.159","SITE":"AFETR","RCS_SIZE":"LARGE","ELEMENT_SET_NO":"999","MEAN_MOTION_DDOT":"0.0000000000000","OBJECT_NAME":"STARLINK-2232","SEMIMAJOR_AXIS":"6925.318","TLE_LINE2":"2 48578  53.0568  50.8659 0001478  78.5965 281.5190 15.06410095 26177","EPOCH":"2021-11-04T19:36:37.393344","ARG_OF_PERICENTER":"78.5965","APOAPSIS":"548.206","LAUNCH_DATE":"2021-05-15","MEAN_MOTION":"15.06410095","MEAN_MOTION_DOT":"0.00004609","NORAD_CAT_ID":"48578","MEAN_ANOMALY":"281.5190","COUNTRY_CODE":"US","PERIOD":"95.591","INCLINATION":"53.0568","TLE_LINE1":"1 48578U 21041AB  21308.81709946  .00004609  00000-0  32805-3 0  9998","EPHEMERIS_TYPE":"0","CENTER_NAME":"EARTH","REV_AT_EPOCH":"2617","CLASSIFICATION_TYPE":"U","BSTAR":"0.00032805000000","RA_OF_ASC_NODE":"50.8659","REF_FRAME":"TEME","TIME_SYSTEM":"UTC","OBJECT_ID":"2021-041AB","ECCENTRICITY":"0.00014780","DECAY_DATE":null,"MEAN_ELEMENT_THEORY":"SGP4","FILE":"3202404","OBJECT_TYPE":"PAYLOAD","GP_ID":"188955884"},{"LAUNCH_DATE":"2021-05-15","MEAN_MOTION":"15.06441051","APOAPSIS":"547.987","OBJECT_NAME":"STARLINK-2233","MEAN_MOTION_DDOT":"0.0000000000000","ELEMENT_SET_NO":"999","RCS_SIZE":"LARGE","ARG_OF_PERICENTER":"78.1600","EPOCH":"2021-11-04T15:01:58.218528","SEMIMAJOR_AXIS":"6925.223","TLE_LINE2":"2 48579  53.0566  51.7319 0001299  78.1600 281.9535 15.06441051 26142","SITE":"AFETR","PERIAPSIS":"546.188","INCLINATION":"53.0566","PERIOD":"95.590","COUNTRY_CODE":"US","MEAN_MOTION_DOT":"0.00015474","MEAN_ANOMALY":"281.9535","NORAD_CAT_ID":"48579","TIME_SYSTEM":"UTC","REF_FRAME":"TEME","CLASSIFICATION_TYPE":"U","RA_OF_ASC_NODE":"51.7319","BSTAR":"0.00105430000000","EPHEMERIS_TYPE":"0","CENTER_NAME":"EARTH","REV_AT_EPOCH":"2614","TLE_LINE1":"1 48579U 21041AC  21308.62636827  .00015474  00000-0  10543-2 0  9991","GP_ID":"188956115","OBJECT_TYPE":"PAYLOAD","FILE":"3202404","OBJECT_ID":"2021-041AC","MEAN_ELEMENT_THEORY":"SGP4","DECAY_DATE":null,"ECCENTRICITY":"0.00012990"},{"MEAN_MOTION":"15.06414006","LAUNCH_DATE":"2021-05-15","APOAPSIS":"548.457","EPOCH":"2021-11-04T22:00:00.999936","ARG_OF_PERICENTER":"44.3888","TLE_LINE2":"2 48580  53.0564  25.4270 0001858  44.3888 273.5386 15.06414006  3607","SEMIMAJOR_AXIS":"6925.306","MEAN_MOTION_DDOT":"0.0000000000000","ELEMENT_SET_NO":"999","OBJECT_NAME":"STARLINK-2234","RCS_SIZE":"LARGE","SITE":"AFETR","PERIAPSIS":"545.884","INCLINATION":"53.0564","PERIOD":"95.591","COUNTRY_CODE":"US","MEAN_ANOMALY":"273.5386","NORAD_CAT_ID":"48580","MEAN_MOTION_DOT":"-0.00021624","TIME_SYSTEM":"UTC","REF_FRAME":"TEME","RA_OF_ASC_NODE":"25.4270","BSTAR":"-0.00143660000000","CLASSIFICATION_TYPE":"U","REV_AT_EPOCH":"360","CENTER_NAME":"EARTH","EPHEMERIS_TYPE":"0","TLE_LINE1":"1 48580U 21041AD  21308.91667824 -.00021624  00000-0 -14366-2 0  9999","GP_ID":"188955999","OBJECT_TYPE":"PAYLOAD","FILE":"3202404","DECAY_DATE":null,"MEAN_ELEMENT_THEORY":"SGP4","ECCENTRICITY":"0.00018580","OBJECT_ID":"2021-041AD"},{"PERIOD":"93.371","INCLINATION":"53.0559","MEAN_MOTION_DOT":"0.00090627","MEAN_ANOMALY":"326.7276","NORAD_CAT_ID":"48581","COUNTRY_CODE":"US","APOAPSIS":"441.794","LAUNCH_DATE":"2021-05-15","MEAN_MOTION":"15.42242687","SITE":"AFETR","PERIAPSIS":"437.194","OBJECT_NAME":"STARLINK-2235","MEAN_MOTION_DDOT":"0.0000000000000","ELEMENT_SET_NO":"999","RCS_SIZE":"LARGE","ARG_OF_PERICENTER":"8.9422","EPOCH":"2021-11-04T22:00:00.999936","SEMIMAJOR_AXIS":"6817.629","TLE_LINE2":"2 48581  53.0559  20.4979 0003373   8.9422 326.7276 15.42242687  3655","FILE":"3202404","GP_ID":"188956231","OBJECT_TYPE":"PAYLOAD","OBJECT_ID":"2021-041AE","MEAN_ELEMENT_THEORY":"SGP4","DECAY_DATE":null,"ECCENTRICITY":"0.00033730","CLASSIFICATION_TYPE":"U","RA_OF_ASC_NODE":"20.4979","BSTAR":"0.00206140000000","TIME_SYSTEM":"UTC","REF_FRAME":"TEME","TLE_LINE1":"1 48581U 21041AE  21308.91667824  .00090627  00000-0  20614-2 0  9990","EPHEMERIS_TYPE":"0","CENTER_NAME":"EARTH","REV_AT_EPOCH":"365"}];
